YAOGAN-43 01G           
1 60464U 24148G   26068.44348481  .00010133  00000+0  35873-3 0  9993
2 60464  35.0006  62.0013 0007382 306.3543  53.6492 15.28332833 87004
STARLINK-34333          
1 64264U 25120J   26068.51702465  .00028482  00000+0  97035-3 0  9994
2 64264  53.1602 117.2177 0001524  66.8946 293.2215 15.30191213 43847
